FENGYUN 1C DEB          
1 31546U 99025BYM 17345.80412500  .00001047  00000-0  68102-3 0  9996
2 31546  98.2253 299.0009 0178666 135.1734 226.4024 13.96807995538561
